OBJECT_NAME,OBJECT_ID,EPOCH,MEAN_MOTION,ECCENTRICITY,INCLINATION,RA_OF_ASC_NODE,ARG_OF_PERICENTER,MEAN_ANOMALY,EPHEMERIS_TYPE,CLASSIFICATION_TYPE,NORAD_CAT_ID,ELEMENT_SET_NO,REV_AT_EPOCH,BSTAR,MEAN_MOTION_DOT,MEAN_MOTION_DDOT
STARLINK-30223,2023-119B,2026-06-19T21:06:46.614816,15.10865171,.00058596,42.9982,240.7570,2.7153,357.3724,0,U,57603,999,15851,.10967153E-2,.184E-3,0
STARLINK-30218,2023-119C,2026-06-19T05:20:47.709888,15.27576639,.0001671,43.0002,228.2565,254.0836,105.9831,0,U,57604,999,15861,.3483017E-4,.696E-5,0
STARLINK-30138,2023-119D,2026-06-19T21:07:54.453504,15.27581495,.00020266,43.0039,224.5907,262.6184,97.4437,0,U,57605,999,15871,.24405516E-4,.409E-5,0
STARLINK-30255,2023-119E,2026-06-19T14:21:40.535712,15.27574090,.00011147,43.0020,225.9149,275.4114,84.6610,0,U,57606,999,15867,.35120432E-4,.704E-5,0
STARLINK-30252,2023-119F,2026-06-19T13:41:45.421440,15.27579765,.00018639,43.0033,211.2733,278.5672,81.4968,0,U,57607,999,15884,.34529351E-4,.688E-5,0
STARLINK-30258,2023-119G,2026-06-19T10:40:16.202208,15.27580121,.00014206,43.0014,227.3295,277.3820,82.6870,0,U,57608,999,15864,.46726516E-4,.1024E-4,0
STARLINK-30174,2023-119H,2026-06-19T10:56:42.570528,15.27573583,.00013667,43.0004,226.5623,273.6459,86.4237,0,U,57609,999,15865,.4229354E-5,-.146E-5,0
STARLINK-30248,2023-119J,2026-06-19T10:47:26.859552,15.27587020,.00014463,42.9983,226.5130,263.3847,96.6840,0,U,57610,999,15865,.24393129E-4,.409E-5,0
STARLINK-30052,2023-119K,2026-06-19T11:02:15.727200,15.27578474,.00014024,43.0008,226.5924,279.9031,80.1663,0,U,57611,999,15863,.35282936E-4,.709E-5,0
STARLINK-30245,2023-119L,2026-06-19T10:49:18.245568,15.27577353,.00013944,42.9999,226.5213,277.3566,82.7127,0,U,57612,999,15865,.3535069E-4,.711E-5,0
STARLINK-30041,2023-119M,2026-06-19T11:04:06.411648,15.27570467,.00006979,43.0014,226.5989,249.3227,110.7550,0,U,57613,999,15865,.48152036E-4,.1063E-4,0
STARLINK-30244,2023-119N,2026-06-19T14:23:32.682912,15.27555777,.00007966,43.0009,225.9179,255.2829,104.7935,0,U,57614,999,15867,.1369571E-3,.3506E-4,0
STARLINK-30246,2023-119P,2026-06-18T21:13:21.314208,15.27576164,.0001122,43.0026,229.9939,267.7854,92.2869,0,U,57615,999,15856,.41721E-4,.886E-5,0
STARLINK-30075,2023-119Q,2026-06-19T10:45:36.824832,15.27563317,.00015193,43.0013,226.5135,277.5980,82.4700,0,U,57616,999,15865,.38037874E-4,.784E-5,0
STARLINK-30148,2023-119R,2026-06-19T10:54:51.705504,15.27574440,.00011962,43.0012,226.5615,271.3302,88.7412,0,U,57617,999,15865,.7805987E-5,-.47E-6,0
STARLINK-30249,2023-119S,2026-06-19T11:00:24.706656,15.27577508,.00011111,43.0004,226.5893,271.9589,88.1135,0,U,57618,999,15865,.21049924E-4,.317E-5,0
STARLINK-30141,2023-119U,2026-06-19T14:25:22.721088,15.27577341,.00010634,43.0023,225.9353,274.4564,85.6167,0,U,57620,999,15867,.30813738E-4,.586E-5,0
STARLINK-30150,2023-119V,2026-06-19T12:45:40.095648,15.27575831,.00011922,43.0022,226.2783,276.5798,83.4918,0,U,57621,999,15866,.20852885E-4,.312E-5,0
STARLINK-30056,2023-119W,2026-06-19T03:35:33.469152,15.27562235,.00019243,43.0052,228.5394,272.3406,87.7225,0,U,57622,999,15860,-.28721067E-4,-.1052E-4,0
STARLINK-30100,2023-119X,2026-06-19T20:56:48.251616,15.27579597,.00013817,43.0039,224.5309,267.7583,92.3111,0,U,57623,999,15871,.24755597E-4,.419E-5,0
STARLINK-30309,2023-122A,2026-06-19T21:05:57.639840,15.27579280,.00012479,43.0002,235.5546,275.4500,84.6209,0,U,57632,999,15783,.50705778E-4,.1133E-4,0
STARLINK-30306,2023-122B,2026-06-19T11:46:34.997376,15.27581934,.00011106,43.0003,237.7964,267.9983,92.0742,0,U,57633,999,15777,.51655963E-4,.116E-4,0
STARLINK-30323,2023-122C,2026-06-19T14:17:57.513984,15.27575324,.00011958,43.0022,225.8371,276.3268,83.7448,0,U,57634,999,15792,.4236322E-4,.904E-5,0
STARLINK-30329,2023-122D,2026-06-19T15:04:08.048352,15.27578393,.0001202,43.0012,237.1071,275.1859,84.8855,0,U,57635,999,15779,.5320105E-4,.1202E-4,0
STARLINK-30330,2023-122E,2026-06-19T15:09:41.189472,15.27581621,.00011787,43.0023,237.1360,274.8515,85.2202,0,U,57636,999,15779,.29046927E-4,.537E-5,0
STARLINK-30311,2023-122F,2026-06-19T10:47:22.714080,15.27588645,.00020279,43.0076,237.4991,279.1987,80.8636,0,U,57637,999,15777,-.25940374E-4,-.977E-5,0
STARLINK-30328,2023-122G,2026-06-19T10:58:32.579328,15.27591562,.00012476,43.0000,226.4598,274.6987,85.3722,0,U,57638,999,15791,-.18425311E-3,-.533E-4,0
STARLINK-30326,2023-122H,2026-06-19T11:24:21.653568,15.27586630,.00005397,43.0015,237.6747,271.3050,88.7740,0,U,57639,999,15777,.68396615E-4,.1621E-4,0
STARLINK-30324,2023-122J,2026-06-19T21:15:12.462624,15.27579646,.00014505,43.0014,235.5991,276.5426,83.5261,0,U,57640,999,15782,.39740985E-4,.832E-5,0
STARLINK-30312,2023-122K,2026-06-19T04:21:29.119392,15.27576032,.00019535,43.0057,238.9199,270.2684,89.7944,0,U,57641,999,15773,.11666732E-4,.59E-6,0
STARLINK-30263,2023-122L,2026-06-19T15:35:22.778016,15.27578203,.00013322,43.0035,236.4135,258.7039,101.3663,0,U,57642,999,15780,.49466044E-4,.1099E-4,0
STARLINK-30280,2023-122M,2026-06-19T11:04:01.013376,15.27580778,.0001886,43.0067,237.5817,277.7531,82.3106,0,U,57643,999,15777,.30623697E-4,.58E-5,0
STARLINK-30247,2023-122N,2026-06-19T10:58:29.408448,15.27563350,.00013365,43.0040,237.5566,257.2704,102.7999,0,U,57644,999,15777,.85329128E-4,.2085E-4,0
STARLINK-30277,2023-122P,2026-06-19T05:05:26.048256,15.27576416,.00014453,43.0014,97.0541,263.3381,96.7306,0,U,57645,999,15940,.26191516E-4,.459E-5,0
STARLINK-30265,2023-122Q,2026-06-18T22:10:24.957408,15.27577278,.0000993,43.0027,240.4278,285.8717,74.2025,0,U,57646,999,15769,.34057E-4,.675E-5,0
STARLINK-30286,2023-122R,2026-06-19T15:52:02.181504,15.27578525,.00012214,43.0013,236.4970,272.6029,87.4683,0,U,57647,999,15780,.64169463E-4,.1504E-4,0
STARLINK-30243,2023-122S,2026-06-19T11:35:28.249440,15.27577678,.0001345,42.9992,237.7338,269.1344,90.9354,0,U,57648,999,15777,-.18677031E-4,-.776E-5,0
STARLINK-30299,2023-122U,2026-06-19T11:15:06.918048,15.27581076,.00011799,42.9999,237.6293,267.8305,92.2411,0,U,57650,999,15777,.42029139E-4,.895E-5,0
STARLINK-30294,2023-122V,2026-06-19T10:51:09.260928,15.27549458,.00016581,43.0031,226.4919,272.6369,87.4293,0,U,57651,999,15790,.32664795E-4,.636E-5,0
STARLINK-30276,2023-122W,2026-06-19T11:29:55.560192,15.27569261,.00011473,43.0022,237.7072,272.0775,87.9946,0,U,57652,999,15777,-.30735683E-4,-.1107E-4,0
STARLINK-30289,2023-122X,2026-06-19T10:34:41.643264,15.27580830,.00013939,43.0014,227.2112,277.1445,82.9248,0,U,57653,999,15788,.30108384E-4,.566E-5,0
STARLINK-30267,2023-124A,2026-06-19T12:13:00.922080,15.30193499,.00013167,53.1596,94.0842,98.6003,261.5147,0,U,57663,999,15915,.23639036E-4,.341E-5,0
STARLINK-30298,2023-124C,2026-06-19T22:00:01.999584,15.33578280,.00007472,53.1597,92.1532,88.5734,26.9809,0,U,57665,999,587,-.6581193E-3,-.21973E-3,0
STARLINK-30301,2023-124D,2026-06-19T22:59:36.694176,15.33558149,.00026699,53.1587,152.6558,49.8231,310.3005,0,U,57666,999,15834,.3154154E-3,.10017E-3,0
STARLINK-30275,2023-124E,2026-06-19T22:00:01.999584,15.34399397,.00008059,53.1603,92.1931,83.2218,269.4742,0,U,57667,999,581,-.67735947E-3,-.23191E-3,0
STARLINK-30278,2023-124F,2026-06-19T12:35:46.339296,15.30196528,.00013278,53.1607,94.0275,81.5964,278.5187,0,U,57668,999,15915,.25306722E-4,.39E-5,0
STARLINK-30271,2023-124G,2026-06-19T19:26:43.945440,15.31708018,.00013222,53.1613,92.1206,91.5935,268.5218,0,U,57669,999,15920,.14140448E-4,.74E-6,0
STARLINK-30322,2023-124H,2026-06-19T22:05:37.497696,15.30522958,.00026031,53.1602,92.2092,97.9588,262.1708,0,U,57670,999,15921,.12999264E-2,.38731E-3,0
STARLINK-30296,2023-124J,2026-06-19T12:17:33.931392,15.30191694,.00010289,53.1595,94.0569,97.9525,262.1592,0,U,57671,999,15915,.13735561E-3,.371E-4,0
STARLINK-30274,2023-124K,2026-06-19T11:54:47.616480,15.30195498,.00012123,53.1610,94.0666,92.7402,267.3737,0,U,57672,999,15915,.8700324E-5,-.101E-5,0
STARLINK-30316,2023-124L,2026-06-19T22:00:01.999584,15.34310418,.00006321,53.1600,92.1777,143.1199,291.0168,0,U,57673,999,581,.51137594E-3,.16892E-3,0
STARLINK-30313,2023-124P,2026-06-19T02:35:01.245120,15.30185618,.00012163,53.1596,95.9084,90.2980,269.8160,0,U,57676,999,15909,-.3211447E-4,-.131E-4,0
STARLINK-30303,2023-124Q,2026-06-19T12:31:05.650752,15.30190966,.00014164,53.1606,93.4784,86.1463,273.9699,0,U,57677,999,15916,.60817191E-4,.1442E-4,0
STARLINK-30320,2023-124R,2026-06-19T17:31:46.578144,15.34416276,.00010791,53.1600,79.2002,100.6510,259.4614,0,U,57678,999,15938,.15994159E-3,.5034E-4,0
STARLINK-30321,2023-124S,2026-06-19T01:47:54.974976,15.30197062,.00012112,53.1605,95.6673,80.5438,279.5700,0,U,57679,999,15909,.17858368E-4,.17E-5,0
STARLINK-30283,2023-124T,2026-06-19T18:24:39.767616,15.30185655,.00014643,53.1600,92.8459,110.7597,249.3561,0,U,57680,999,15919,.53537083E-4,.1226E-4,0
STARLINK-30273,2023-124U,2026-06-19T19:33:27.249408,15.31712370,.00012481,53.1583,92.1589,96.6256,263.4888,0,U,57681,999,15920,.17090085E-3,.4944E-4,0
STARLINK-30297,2023-124V,2026-06-19T12:03:54.554400,15.30197269,.00013553,53.1599,94.1077,88.5165,271.5991,0,U,57682,999,15915,-.1722498E-4,-.869E-5,0
STARLINK-30295,2023-124W,2026-06-19T12:22:08.360256,15.30186282,.00014926,53.1606,94.0995,86.0534,274.0638,0,U,57683,999,15915,.16427259E-3,.4507E-4,0
STARLINK-30288,2023-129A,2026-06-19T12:46:39.114624,15.27578609,.00016417,43.0059,263.1317,270.1891,89.8772,0,U,57698,999,15625,.51786936E-4,.1163E-4,0
STARLINK-30347,2023-129B,2026-06-19T11:47:31.356096,15.27578409,.00026296,43.0037,251.7493,287.5283,72.5281,0,U,57699,999,15638,.47056698E-4,.1032E-4,0
STARLINK-30332,2023-129C,2026-06-19T18:04:42.032064,15.27582776,.00016056,42.9997,269.0033,272.2333,87.8335,0,U,57700,999,15606,.11101385E-3,.2794E-4,0
STARLINK-30345,2023-129D,2026-06-19T16:37:16.459968,15.27528300,.00024784,43.0042,261.7600,250.8134,109.2450,0,U,57701,999,15614,.4805362E-3,.12964E-3,0
STARLINK-30333,2023-129E,2026-06-19T06:44:37.498848,15.27571601,.00014937,42.9998,263.8350,279.7536,80.3147,0,U,57702,999,15622,-.651682E-6,-.28E-5,0
